[{"OBJECT_NAME":"OBJECT A","OBJECT_ID":"2024-226A","EPOCH":"2026-03-09T22:36:14.541408","MEAN_MOTION":13.60146996,"ECCENTRICITY":0.00561129,"INCLINATION":50.0042,"RA_OF_ASC_NODE":280.0394,"ARG_OF_PERICENTER":198.7324,"MEAN_ANOMALY":161.1496,"EPHEMERIS_TYPE":0,"CLASSIFICATION_TYPE":"U","NORAD_CAT_ID":62185,"ELEMENT_SET_NO":999,"REV_AT_EPOCH":6320,"BSTAR":9.4575106e-5,"MEAN_MOTION_DOT":-6.3e-7,"MEAN_MOTION_DDOT":0},{"OBJECT_NAME":"COSMOS 894","OBJECT_ID":"1977-013A","EPOCH":"2026-03-09T17:44:14.214624","MEAN_MOTION":13.74199492,"ECCENTRICITY":0.00310638,"INCLINATION":82.9477,"RA_OF_ASC_NODE":170.7321,"ARG_OF_PERICENTER":124.9647,"MEAN_ANOMALY":347.0621,"EPHEMERIS_TYPE":0,"CLASSIFICATION_TYPE":"U","NORAD_CAT_ID":9846,"ELEMENT_SET_NO":999,"REV_AT_EPOCH":45851,"BSTAR":7.3769568e-5,"MEAN_MOTION_DOT":8.5e-7,"MEAN_MOTION_DDOT":0}]
